{"type":"FeatureCollection","features":[{"type":"Feature","properties":{},"geometry":{"type":"Polygon","coordinates":[[[-78.5228588,61.676022],[-80.0068105,58.6923203],[-77.7687449,56.1776297],[-80.4174595,54.941338],[-79.9607748,51.6680132],[-79.5687769,51.5309365],[-79.4999919,47.6199748],[-79.592254,47.4122677],[-79.4384839,47.2663835],[-79.4794892,47.0991649],[-78.7106384,46.318923],[-77.6957552,46.1984302],[-77.3677122,46.0421052],[-77.2446961,45.8996067],[-76.9986638,45.7996396],[-76.916653,45.9138731],[-76.7936369,45.8996067],[-76.7731342,45.649352],[-76.4450912,45.4842874],[-76.2775138,45.4687667],[-76.2443271,45.4845906],[-76.2323799,45.515295],[-76.1832635,45.5245961],[-76.0943231,45.515295],[-76.0345869,45.4948273],[-75.9708684,45.4715594],[-75.9164422,45.4156774],[-75.8447588,45.3755946],[-75.8089172,45.3774596],[-75.7664381,45.4035624],[-75.7400559,45.4145096],[-75.7126903,45.4214946],[-75.7047293,45.425336],[-75.6987587,45.444888],[-75.6903002,45.4543125],[-75.6733832,45.4626885],[-75.6291006,45.4682718],[-75.5878034,45.4731567],[-75.4824213,45.5119117],[-75.3422964,45.5378097],[-75.2958747,45.5642976],[-75.2073296,45.584757],[-75.0637661,45.5937808],[-75.0078881,45.6022017],[-74.9425538,45.6442875],[-74.8660439,45.6406813],[-74.7431123,45.6358728],[-74.6562865,45.6388782],[-74.6330756,45.637075],[-74.6081455,45.6202423],[-74.5224287,45.5937461],[-74.4785859,45.5961522],[-74.4399012,45.5762987],[-74.3823038,45.5666702],[-74.4742876,45.3036591],[-74.3418998,45.2038053],[-74.4299993,45.1407173],[-74.5133865,45.0672984],[-74.6380374,45.0132358],[-74.7162666,45.0010799],[-74.2890148,44.9937851],[-73.9709401,44.9992563],[-72.8658875,45.0159208],[-72.3225814,45.0049811],[-71.4990237,45.0153129],[-71.4147768,45.1343001],[-71.3950046,45.2379081],[-71.3047401,45.2857101],[-71.1783699,45.2330652],[-71.1388255,45.2506189],[-71.0672019,45.3067173],[-70.9838147,45.3351268],[-70.939972,45.3049034],[-70.9073048,45.2462241],[-70.8677604,45.2310907],[-70.8428302,45.2444083],[-70.815321,45.3151812],[-70.825637,45.3568777],[-70.8213387,45.4027687],[-70.7946892,45.4305268],[-70.7491271,45.4287169],[-70.7009861,45.3955252],[-70.6683189,45.3822431],[-70.6468274,45.3906957],[-70.6218972,45.4136322],[-70.6382308,45.4401786],[-70.6889508,45.4643008],[-70.7121617,45.5004648],[-70.7027054,45.5396162],[-70.6700382,45.5721214],[-70.6184585,45.61904],[-70.5720368,45.6478935],[-70.472314,45.7013531],[-70.4078393,45.7127593],[-70.4001024,45.7325645],[-70.3983831,45.7559616],[-70.408699,45.7823465],[-70.3966637,45.8081198],[-70.3588386,45.8422659],[-70.2702935,45.8823758],[-70.2522406,45.9182706],[-70.2453633,45.9517514],[-70.2771708,45.9672892],[-70.3115573,45.9708742],[-70.2930932,45.9952175],[-70.3180234,46.0256675],[-70.2758999,46.0614695],[-70.3111461,46.0787655],[-70.2509698,46.1109574],[-70.2569874,46.1538507],[-70.2844966,46.1871891],[-70.2698823,46.2264548],[-70.2432328,46.257966],[-70.2088463,46.2995569],[-70.1804775,46.3535778],[-70.0566859,46.4199924],[-69.9999482,46.6989927],[-69.2283885,47.4622819],[-69.0555966,47.4221641],[-69.0616142,47.2911325],[-68.805435,47.3523211],[-68.5690281,47.4273986],[-68.4589913,47.5064353],[-68.3850604,47.5551921],[-68.3811297,47.9170888],[-68.1258102,47.9188173],[-68.1258102,47.9999879],[-67.6005559,47.9988368],[-67.6065735,47.9389773],[-67.3899388,47.8605948],[-67.3667279,47.8461733],[-67.3246045,47.8946135],[-67.1973746,47.8836608],[-67.0916362,47.9240016],[-67.0366179,47.9257298],[-66.9841785,47.8957663],[-66.9558097,47.8974955],[-66.9411955,47.910174],[-66.9446341,47.9666134],[-66.8870368,47.9965358],[-66.7778576,47.9902078],[-66.7279972,48.0022884],[-66.6643823,48.0160914],[-66.5165205,48.0511573],[-66.4554845,48.0804564],[-66.3763956,48.0827536],[-66.3497461,48.0701174],[-66.2990261,48.0350644],[-66.1907087,48.032765],[-66.0368293,48.0218415],[-65.1663375,47.9416312],[-65.0012825,47.9957352],[-63.9379203,48.4799165],[-62.0115582,46.828151],[-60.4435191,47.6833038],[-58.4076935,50.6431397],[-57.1038833,51.40876],[-57.0958241,51.9981049],[-63.7446588,52.0080277],[-63.8091323,52.0724722],[-63.6801852,52.0675182],[-63.7446588,52.314544],[-64.0428489,52.3637846],[-64.0428489,52.4964603],[-63.9461386,52.5748946],[-63.6398892,52.6434097],[-63.4061726,52.6727405],[-63.6157117,52.8190994],[-63.8171915,52.7947404],[-64.1073225,52.7069349],[-64.212092,52.584689],[-64.1458894,52.3783953],[-64.2344889,52.2650096],[-64.1957266,52.1275431],[-64.2511013,52.0612039],[-64.3009384,51.9504192],[-64.3507756,51.7280265],[-64.5002872,51.6473524],[-64.7300921,51.697147],[-64.9405158,51.7777324],[-65.1786268,51.8171154],[-65.3198322,51.892361],[-65.4001255,51.9725981],[-65.5911681,52.07482],[-65.7711357,52.0901331],[-65.9594096,52.1122428],[-66.2528988,52.2853388],[-66.3221171,52.4931764],[-66.333192,52.7804973],[-66.3691856,53.047629],[-66.7761893,52.7587204],[-66.9729891,52.7549363],[-67.0122094,52.7472785],[-67.0653467,52.7840238],[-67.0514298,52.8360265],[-67.0590208,52.8818596],[-67.1551739,52.8558934],[-67.1665604,52.8253251],[-67.2361449,52.8513096],[-67.3310329,52.8940736],[-67.3411542,52.9413702],[-67.3867263,53.1735342],[-67.0033275,53.1013027],[-66.9431244,53.455587],[-67.3296918,53.5987358],[-67.6053587,53.8798483],[-67.7732937,54.0810866],[-67.6085273,54.190612],[-67.0310594,54.740904],[-67.4357026,55.0351224],[-66.733303,54.8289554],[-66.7943813,55.3141639],[-65.5422777,54.7012183],[-65.0841911,54.9387503],[-63.8473571,54.6703248],[-63.4274443,55.3054734],[-63.816818,56.1268539],[-63.885531,57.1801781],[-63.7404702,57.5015381],[-63.5782797,57.7983395],[-64.1585228,58.2109537],[-63.7920535,58.7735353],[-64.5402617,59.0494947],[-64.5708008,59.6989965],[-64.6853224,60.6220463],[-70.5497961,62.0901758],[-74.5385723,63.1656626],[-77.8666813,62.8338859],[-78.8142907,62.5605965],[-78.5228588,61.676022]]]}}]}